ONEWEB-0512             
1 54130U 22138T   24129.38880708  .00000140  00000+0  31800-3 0  9998
2 54130  87.9125  98.1809 0001728 100.3477 259.7850 13.19725464 75271
ONEWEB-0513             
1 54131U 22138U   24129.43537806 -.00000264  00000+0 -69291-3 0  9997
2 54131  87.9122  98.1669 0001482  98.1412 261.9888 13.19724642 75164
ONEWEB-0514             
1 54132U 22138V   24129.40460339  .00000084  00000+0  17852-3 0  9995
2 54132  87.9119  98.1703 0001999  85.3999 274.7362 13.19724878 75295
ONEWEB-0515             
1 54133U 22138W   24129.58139071 -.00000027  00000+0 -97359-4 0  9991
2 54133  87.9209  67.5384 0003116  77.3800 282.7681 13.20774051 77718
ONEWEB-0516             
1 54134U 22138X   24129.45514390  .00000034  00000+0  53683-4 0  9997
2 54134  87.9126  98.1686 0002052  89.8304 270.3064 13.19725203 75301
ONEWEB-0517             
1 54135U 22138Y   24129.43461290  .00000559  00000+0  13633-2 0  9997
2 54135  87.9116  98.1605 0001743  75.4171 284.7155 13.19722859 75305
ONEWEB-0518             
1 54136U 22138Z   24129.45355933 -.00000016  00000+0 -71174-4 0  9992
2 54136  87.9125  98.1674 0001894  84.6047 275.5302 13.19724398 75305
ONEWEB-0519             
1 54137U 22138AA  24129.47882824  .00000099  00000+0  21371-3 0  9991
2 54137  87.9116  98.1476 0001638  92.5261 267.6060 13.19724286 75318
